{
  "type": "FeatureCollection",
  "features": [
    {
      "type": "Feature",
      "properties": {
        "norad_id": 49336,
        "name": "QZS-1R (QZSS/PRN 196)",
        "group": "gnss",
        "lat": 0.7435498991965083,
        "lon": -98.57569834603753,
        "alt_km": 35686.76163161083,
        "timestamp": "2025-12-08T03:50:07.241753+00:00",
        "meta_object_name": "QZS-1R (QZSS/PRN 196)",
        "meta_object_id": "2021-096A",
        "meta_epoch": "2025-12-05T14:57:38.876832",
        "meta_mean_motion": 1.00259301,
        "meta_eccentricity": 0.07539341,
        "meta_inclination": 37.062,
        "meta_ra_of_asc_node": 82.4658,
        "meta_arg_of_pericenter": 271.1853,
        "meta_mean_anomaly": 80.5969,
        "meta_ephemeris_type": 0,
        "meta_classification_type": "U",
        "meta_norad_cat_id": 49336,
        "meta_element_set_no": 999,
        "meta_rev_at_epoch": 1507,
        "meta_bstar": 0,
        "meta_mean_motion_dot": -2.6e-06,
        "meta_mean_motion_ddot": 0,
        "tle_line1": "1 49336U 21096A   25339.62336663 -.00000260  00000+0  00000+0 0  9997",
        "tle_line2": "2 49336  37.0620  82.4658 0753934 271.1853  80.5969  1.00259301 15077"
      },
      "geometry": {
        "type": "Point",
        "coordinates": [
          -98.57569834603753,
          0.7435498991965083
        ]
      }
    },
    {
      "type": "Feature",
      "properties": {
        "norad_id": 49809,
        "name": "GSAT0223 (GALILEO 27)",
        "group": "gnss",
        "lat": -48.05432623520317,
        "lon": -147.34807164960955,
        "alt_km": 23213.614411565068,
        "timestamp": "2025-12-08T03:50:07.241765+00:00",
        "meta_object_name": "GSAT0223 (GALILEO 27)",
        "meta_object_id": "2021-116A",
        "meta_epoch": "2025-12-06T21:09:43.608672",
        "meta_mean_motion": 1.70475531,
        "meta_eccentricity": 0.00047238,
        "meta_inclination": 57.2205,
        "meta_ra_of_asc_node": 346.871,
        "meta_arg_of_pericenter": 250.5355,
        "meta_mean_anomaly": 287.3218,
        "meta_ephemeris_type": 0,
        "meta_classification_type": "U",
        "meta_norad_cat_id": 49809,
        "meta_element_set_no": 999,
        "meta_rev_at_epoch": 2490,
        "meta_bstar": 0,
        "meta_mean_motion_dot": -8.2e-07,
        "meta_mean_motion_ddot": 0,
        "tle_line1": "1 49809U 21116A   25340.88175473 -.00000082  00000+0  00000+0 0  9997",
        "tle_line2": "2 49809  57.2205 346.8710 0004723 250.5355 287.3218  1.70475531 24902"
      },
      "geometry": {
        "type": "Point",
        "coordinates": [
          -147.34807164960955,
          -48.05432623520317
        ]
      }
    },
    {
      "type": "Feature",
      "properties": {
        "norad_id": 49810,
        "name": "GSAT0224 (GALILEO 28)",
        "group": "gnss",
        "lat": -4.333443230815123,
        "lon": -15.964820097746204,
        "alt_km": 23225.15950395917,
        "timestamp": "2025-12-08T03:50:07.241776+00:00",
        "meta_object_name": "GSAT0224 (GALILEO 28)",
        "meta_object_id": "2021-116B",
        "meta_epoch": "2025-12-04T15:38:46.077216",
        "meta_mean_motion": 1.70475512,
        "meta_eccentricity": 0.00040562,
        "meta_inclination": 57.2223,
        "meta_ra_of_asc_node": 346.9305,
        "meta_arg_of_pericenter": 253.8254,
        "meta_mean_anomaly": 108.1284,
        "meta_ephemeris_type": 0,
        "meta_classification_type": "U",
        "meta_norad_cat_id": 49810,
        "meta_element_set_no": 999,
        "meta_rev_at_epoch": 2489,
        "meta_bstar": 0,
        "meta_mean_motion_dot": -7.3e-07,
        "meta_mean_motion_ddot": 0,
        "tle_line1": "1 49810U 21116B   25338.65192219 -.00000073  00000+0  00000+0 0  9998",
        "tle_line2": "2 49810  57.2223 346.9305 0004056 253.8254 108.1284  1.70475512 24898"
      },
      "geometry": {
        "type": "Point",
        "coordinates": [
          -15.964820097746204,
          -4.333443230815123
        ]
      }
    },
    {
      "type": "Feature",
      "properties": {
        "norad_id": 52984,
        "name": "COSMOS 2557 (706K)",
        "group": "gnss",
        "lat": 27.415100397308642,
        "lon": -24.41170596483541,
        "alt_km": 19140.95222462021,
        "timestamp": "2025-12-08T03:50:07.241787+00:00",
        "meta_object_name": "COSMOS 2557 (706K)",
        "meta_object_id": "2022-075A",
        "meta_epoch": "2025-12-06T05:49:32.114784",
        "meta_mean_motion": 2.13101746,
        "meta_eccentricity": 0.001371,
        "meta_inclination": 64.4134,
        "meta_ra_of_asc_node": 321.2801,
        "meta_arg_of_pericenter": 276.8497,
        "meta_mean_anomaly": 82.9895,
        "meta_ephemeris_type": 0,
        "meta_classification_type": "U",
        "meta_norad_cat_id": 52984,
        "meta_element_set_no": 999,
        "meta_rev_at_epoch": 2660,
        "meta_bstar": 0,
        "meta_mean_motion_dot": -5.1e-07,
        "meta_mean_motion_ddot": 0,
        "tle_line1": "1 52984U 22075A   25340.24273281 -.00000051  00000+0  00000+0 0  9992",
        "tle_line2": "2 52984  64.4134 321.2801 0013710 276.8497  82.9895  2.13101746 26604"
      },
      "geometry": {
        "type": "Point",
        "coordinates": [
          -24.41170596483541,
          27.415100397308642
        ]
      }
    },
    {
      "type": "Feature",
      "properties": {
        "norad_id": 54031,
        "name": "COSMOS 2559 (707K)",
        "group": "gnss",
        "lat": 9.53448859071188,
        "lon": 136.66892465079843,
        "alt_km": 19101.098844894732,
        "timestamp": "2025-12-08T03:50:07.241800+00:00",
        "meta_object_name": "COSMOS 2559 (707K)",
        "meta_object_id": "2022-130A",
        "meta_epoch": "2025-12-03T17:10:26.893920",
        "meta_mean_motion": 2.13101235,
        "meta_eccentricity": 0.00120262,
        "meta_inclination": 64.3873,
        "meta_ra_of_asc_node": 321.4588,
        "meta_arg_of_pericenter": 192.7508,
        "meta_mean_anomaly": 167.2215,
        "meta_ephemeris_type": 0,
        "meta_classification_type": "U",
        "meta_norad_cat_id": 54031,
        "meta_element_set_no": 999,
        "meta_rev_at_epoch": 2452,
        "meta_bstar": 0,
        "meta_mean_motion_dot": -4.4e-07,
        "meta_mean_motion_ddot": 0,
        "tle_line1": "1 54031U 22130A   25337.71558905 -.00000044  00000+0  00000+0 0  9998",
        "tle_line2": "2 54031  64.3873 321.4588 0012026 192.7508 167.2215  2.13101235 24525"
      },
      "geometry": {
        "type": "Point",
        "coordinates": [
          136.66892465079843,
          9.53448859071188
        ]
      }
    },
    {
      "type": "Feature",
      "properties": {
        "norad_id": 54377,
        "name": "COSMOS 2564 (761)",
        "group": "gnss",
        "lat": -58.7540511569333,
        "lon": 147.9462731030429,
        "alt_km": 19133.593203924935,
        "timestamp": "2025-12-08T03:50:07.241811+00:00",
        "meta_object_name": "COSMOS 2564 (761)",
        "meta_object_id": "2022-161A",
        "meta_epoch": "2025-12-06T20:16:19.958016",
        "meta_mean_motion": 2.13101987,
        "meta_eccentricity": 0.0008674,
        "meta_inclination": 64.7378,
        "meta_ra_of_asc_node": 199.0949,
        "meta_arg_of_pericenter": 205.6872,
        "meta_mean_anomaly": 154.3558,
        "meta_ephemeris_type": 0,
        "meta_classification_type": "U",
        "meta_norad_cat_id": 54377,
        "meta_element_set_no": 999,
        "meta_rev_at_epoch": 2353,
        "meta_bstar": 0,
        "meta_mean_motion_dot": 6.7e-07,
        "meta_mean_motion_ddot": 0,
        "tle_line1": "1 54377U 22161A   25340.84467544  .00000067  00000+0  00000+0 0  9995",
        "tle_line2": "2 54377  64.7378 199.0949 0008674 205.6872 154.3558  2.13101987 23535"
      },
      "geometry": {
        "type": "Point",
        "coordinates": [
          147.9462731030429,
          -58.7540511569333
        ]
      }
    },
    {
      "type": "Feature",
      "properties": {
        "norad_id": 55268,
        "name": "GPS BIII-6  (PRN 28)",
        "group": "gnss",
        "lat": 47.23927209616357,
        "lon": -73.01247270091592,
        "alt_km": 20181.947767064914,
        "timestamp": "2025-12-08T03:50:07.241822+00:00",
        "meta_object_name": "GPS BIII-6  (PRN 28)",
        "meta_object_id": "2023-009A",
        "meta_epoch": "2025-12-07T05:54:14.393088",
        "meta_mean_motion": 2.00556057,
        "meta_eccentricity": 0.00036245,
        "meta_inclination": 55.1044,
        "meta_ra_of_asc_node": 156.061,
        "meta_arg_of_pericenter": 357.0717,
        "meta_mean_anomaly": 179.5009,
        "meta_ephemeris_type": 0,
        "meta_classification_type": "U",
        "meta_norad_cat_id": 55268,
        "meta_element_set_no": 999,
        "meta_rev_at_epoch": 2139,
        "meta_bstar": 0,
        "meta_mean_motion_dot": 5.8e-07,
        "meta_mean_motion_ddot": 0,
        "tle_line1": "1 55268U 23009A   25341.24599992  .00000058  00000+0  00000+0 0  9995",
        "tle_line2": "2 55268  55.1044 156.0610 0003624 357.0717 179.5009  2.00556057 21397"
      },
      "geometry": {
        "type": "Point",
        "coordinates": [
          -73.01247270091592,
          47.23927209616357
        ]
      }
    }
  ]
}